[{"OBJECT_NAME":"ONEWEB-0558","OBJECT_ID":"2023-043P","EPOCH":"2026-05-09T01:58:01.101216","MEAN_MOTION":13.21824395,"ECCENTRICITY":0.0001582,"INCLINATION":87.9237,"RA_OF_ASC_NODE":251.7615,"ARG_OF_PERICENTER":90.8657,"MEAN_ANOMALY":269.2658,"EPHEMERIS_TYPE":0,"CLASSIFICATION_TYPE":"U","NORAD_CAT_ID":56059,"ELEMENT_SET_NO":999,"REV_AT_EPOCH":15307,"BSTAR":-2.1097e-05,"MEAN_MOTION_DOT":4e-08,"MEAN_MOTION_DDOT":0.0},{"OBJECT_NAME":"ONEWEB-0559","OBJECT_ID":"2023-043Q","EPOCH":"2026-05-09T01:41:03.641856","MEAN_MOTION":13.21824875,"ECCENTRICITY":0.000177,"INCLINATION":87.9239,"RA_OF_ASC_NODE":251.7577,"ARG_OF_PERICENTER":94.7597,"MEAN_ANOMALY":265.3739,"EPHEMERIS_TYPE":0,"CLASSIFICATION_TYPE":"U","NORAD_CAT_ID":56060,"ELEMENT_SET_NO":999,"REV_AT_EPOCH":15308,"BSTAR":0.00020427000000000002,"MEAN_MOTION_DOT":9.7e-07,"MEAN_MOTION_DDOT":0.0},{"OBJECT_NAME":"ONEWEB-0566","OBJECT_ID":"2023-043R","EPOCH":"2026-05-09T01:31:22.583712","MEAN_MOTION":13.21824376,"ECCENTRICITY":0.000171,"INCLINATION":87.9238,"RA_OF_ASC_NODE":251.7577,"ARG_OF_PERICENTER":92.6237,"MEAN_ANOMALY":267.5092,"EPHEMERIS_TYPE":0,"CLASSIFICATION_TYPE":"U","NORAD_CAT_ID":56061,"ELEMENT_SET_NO":999,"REV_AT_EPOCH":15306,"BSTAR":0.00010787,"MEAN_MOTION_DOT":5.8e-07,"MEAN_MOTION_DDOT":0.0},{"OBJECT_NAME":"ONEWEB-0568","OBJECT_ID":"2023-043S","EPOCH":"2026-05-09T00:35:16.039680","MEAN_MOTION":13.16595404,"ECCENTRICITY":0.0001983,"INCLINATION":87.9093,"RA_OF_ASC_NODE":236.5474,"ARG_OF_PERICENTER":110.4245,"MEAN_ANOMALY":249.7099,"EPHEMERIS_TYPE":0,"CLASSIFICATION_TYPE":"U","NORAD_CAT_ID":56062,"ELEMENT_SET_NO":999,"REV_AT_EPOCH":15382,"BSTAR":-0.00017555,"MEAN_MOTION_DOT":-5.4e-07,"MEAN_MOTION_DDOT":0.0},{"OBJECT_NAME":"ONEWEB-0574","OBJECT_ID":"2023-043T","EPOCH":"2026-05-09T01:21:41.484960","MEAN_MOTION":13.21826039,"ECCENTRICITY":0.000211,"INCLINATION":87.9248,"RA_OF_ASC_NODE":251.7584,"ARG_OF_PERICENTER":102.6428,"MEAN_ANOMALY":257.4942,"EPHEMERIS_TYPE":0,"CLASSIFICATION_TYPE":"U","NORAD_CAT_ID":56063,"ELEMENT_SET_NO":999,"REV_AT_EPOCH":15310,"BSTAR":-2.3717e-05,"MEAN_MOTION_DOT":3e-08,"MEAN_MOTION_DDOT":0.0},{"OBJECT_NAME":"ONEWEB-0575","OBJECT_ID":"2023-043U","EPOCH":"2026-05-09T00:26:09.741120","MEAN_MOTION":13.1659592,"ECCENTRICITY":0.0002369,"INCLINATION":87.9097,"RA_OF_ASC_NODE":236.5453,"ARG_OF_PERICENTER":108.0998,"MEAN_ANOMALY":252.0391,"EPHEMERIS_TYPE":0,"CLASSIFICATION_TYPE":"U","NORAD_CAT_ID":56064,"ELEMENT_SET_NO":999,"REV_AT_EPOCH":15381,"BSTAR":-0.00012993,"MEAN_MOTION_DOT":-3.7e-07,"MEAN_MOTION_DDOT":0.0},{"OBJECT_NAME":"ONEWEB-0576","OBJECT_ID":"2023-043V","EPOCH":"2026-05-08T23:58:48.580896","MEAN_MOTION":13.16595939,"ECCENTRICITY":0.0002173,"INCLINATION":87.9101,"RA_OF_ASC_NODE":236.5555,"ARG_OF_PERICENTER":105.7341,"MEAN_ANOMALY":254.403,"EPHEMERIS_TYPE":0,"CLASSIFICATION_TYPE":"U","NORAD_CAT_ID":56065,"ELEMENT_SET_NO":999,"REV_AT_EPOCH":15380,"BSTAR":0.00010199,"MEAN_MOTION_DOT":5.2e-07,"MEAN_MOTION_DDOT":0.0},{"OBJECT_NAME":"ONEWEB-0577","OBJECT_ID":"2023-043W","EPOCH":"2026-05-09T00:07:55.201728","MEAN_MOTION":13.16595828,"ECCENTRICITY":0.0002766,"INCLINATION":87.91,"RA_OF_ASC_NODE":236.5522,"ARG_OF_PERICENTER":105.8238,"MEAN_ANOMALY":254.3198,"EPHEMERIS_TYPE":0,"CLASSIFICATION_TYPE":"U","NORAD_CAT_ID":56066,"ELEMENT_SET_NO":999,"REV_AT_EPOCH":15383,"BSTAR":1.6859e-05,"MEAN_MOTION_DOT":1.9e-07,"MEAN_MOTION_DDOT":0.0},{"OBJECT_NAME":"ONEWEB-0578","OBJECT_ID":"2023-043X","EPOCH":"2026-05-09T01:02:18.463200","MEAN_MOTION":13.21825532,"ECCENTRICITY":0.0001917,"INCLINATION":87.9241,"RA_OF_ASC_NODE":251.7619,"ARG_OF_PERICENTER":110.7149,"MEAN_ANOMALY":249.419,"EPHEMERIS_TYPE":0,"CLASSIFICATION_TYPE":"U","NORAD_CAT_ID":56067,"ELEMENT_SET_NO":999,"REV_AT_EPOCH":15306,"BSTAR":-0.0001415,"MEAN_MOTION_DOT":-4.5e-07,"MEAN_MOTION_DDOT":0.0},{"OBJECT_NAME":"ONEWEB-0579","OBJECT_ID":"2023-043Y","EPOCH":"2026-05-09T00:50:11.395104","MEAN_MOTION":13.21825091,"ECCENTRICITY":0.0001918,"INCLINATION":87.9245,"RA_OF_ASC_NODE":251.7587,"ARG_OF_PERICENTER":91.7371,"MEAN_ANOMALY":268.3982,"EPHEMERIS_TYPE":0,"CLASSIFICATION_TYPE":"U","NORAD_CAT_ID":56068,"ELEMENT_SET_NO":999,"REV_AT_EPOCH":15307,"BSTAR":-0.00058039,"MEAN_MOTION_DOT":-2.27e-06,"MEAN_MOTION_DDOT":0.0},{"OBJECT_NAME":"ONEWEB-0581","OBJECT_ID":"2023-043Z","EPOCH":"2026-05-09T00:17:02.792832","MEAN_MOTION":13.16594534,"ECCENTRICITY":0.0002569,"INCLINATION":87.9099,"RA_OF_ASC_NODE":236.5619,"ARG_OF_PERICENTER":102.8432,"MEAN_ANOMALY":257.2986,"EPHEMERIS_TYPE":0,"CLASSIFICATION_TYPE":"U","NORAD_CAT_ID":56069,"ELEMENT_SET_NO":999,"REV_AT_EPOCH":15380,"BSTAR":-0.00033704000000000004,"MEAN_MOTION_DOT":-1.16e-06,"MEAN_MOTION_DDOT":0.0},{"OBJECT_NAME":"ONEWEB-0609","OBJECT_ID":"2023-043AA","EPOCH":"2026-05-09T03:56:06.569088","MEAN_MOTION":13.15550283,"ECCENTRICITY":0.0001756,"INCLINATION":87.8968,"RA_OF_ASC_NODE":266.9924,"ARG_OF_PERICENTER":99.586,"MEAN_ANOMALY":260.5468,"EPHEMERIS_TYPE":0,"CLASSIFICATION_TYPE":"U","NORAD_CAT_ID":56070,"ELEMENT_SET_NO":999,"REV_AT_EPOCH":15130,"BSTAR":-0.00010743,"MEAN_MOTION_DOT":-2.8e-07,"MEAN_MOTION_DDOT":0.0},{"OBJECT_NAME":"ONEWEB-0613","OBJECT_ID":"2023-043AB","EPOCH":"2026-05-09T02:03:10.666368","MEAN_MOTION":13.15554193,"ECCENTRICITY":0.000171,"INCLINATION":87.8971,"RA_OF_ASC_NODE":267.0203,"ARG_OF_PERICENTER":89.7511,"MEAN_ANOMALY":270.3816,"EPHEMERIS_TYPE":0,"CLASSIFICATION_TYPE":"U","NORAD_CAT_ID":56071,"ELEMENT_SET_NO":999,"REV_AT_EPOCH":15129,"BSTAR":0.0017462,"MEAN_MOTION_DOT":6.7e-06,"MEAN_MOTION_DDOT":0.0},{"OBJECT_NAME":"ONEWEB-0630","OBJECT_ID":"2023-043AC","EPOCH":"2026-05-09T01:56:20.426208","MEAN_MOTION":13.15548844,"ECCENTRICITY":0.0001791,"INCLINATION":87.8971,"RA_OF_ASC_NODE":266.9915,"ARG_OF_PERICENTER":91.1107,"MEAN_ANOMALY":269.0228,"EPHEMERIS_TYPE":0,"CLASSIFICATION_TYPE":"U","NORAD_CAT_ID":56072,"ELEMENT_SET_NO":999,"REV_AT_EPOCH":15128,"BSTAR":0.00019236,"MEAN_MOTION_DOT":8.5e-07,"MEAN_MOTION_DDOT":0.0},{"OBJECT_NAME":"ONEWEB-0632","OBJECT_ID":"2023-043AD","EPOCH":"2026-05-09T01:49:29.618400","MEAN_MOTION":13.1554906,"ECCENTRICITY":0.0002019,"INCLINATION":87.8972,"RA_OF_ASC_NODE":267.0106,"ARG_OF_PERICENTER":98.5709,"MEAN_ANOMALY":261.565,"EPHEMERIS_TYPE":0,"CLASSIFICATION_TYPE":"U","NORAD_CAT_ID":56073,"ELEMENT_SET_NO":999,"REV_AT_EPOCH":15128,"BSTAR":0.00025481,"MEAN_MOTION_DOT":1.09e-06,"MEAN_MOTION_DDOT":0.0},{"OBJECT_NAME":"ONEWEB-0633","OBJECT_ID":"2023-043AE","EPOCH":"2026-05-09T03:29:52.503648","MEAN_MOTION":13.15548254,"ECCENTRICITY":0.0001568,"INCLINATION":87.8978,"RA_OF_ASC_NODE":266.9689,"ARG_OF_PERICENTER":89.1725,"MEAN_ANOMALY":270.9585,"EPHEMERIS_TYPE":0,"CLASSIFICATION_TYPE":"U","NORAD_CAT_ID":56074,"ELEMENT_SET_NO":999,"REV_AT_EPOCH":15127,"BSTAR":0.00028299,"MEAN_MOTION_DOT":1.19e-06,"MEAN_MOTION_DDOT":0.0}]