ONEWEB-0558             
1 56059U 23043P   26129.08195719  .00000004  00000+0 -21097-4 0  9994
2 56059  87.9237 251.7615 0001582  90.8657 269.2658 13.21824395153073
ONEWEB-0559             
1 56060U 23043Q   26129.07018104  .00000097  00000+0  20427-3 0  9993
2 56060  87.9239 251.7577 0001770  94.7597 265.3739 13.21824875153080
ONEWEB-0566             
1 56061U 23043R   26129.06345583  .00000058  00000+0  10787-3 0  9992
2 56061  87.9238 251.7577 0001710  92.6237 267.5092 13.21824376153062
ONEWEB-0568             
1 56062U 23043S   26129.02449120 -.00000054  00000+0 -17555-3 0  9999
2 56062  87.9093 236.5474 0001983 110.4245 249.7099 13.16595404153823
ONEWEB-0574             
1 56063U 23043T   26129.05673015  .00000003  00000+0 -23717-4 0  9996
2 56063  87.9248 251.7584 0002110 102.6428 257.4942 13.21826039153107
ONEWEB-0575             
1 56064U 23043U   26129.01816830 -.00000037  00000+0 -12993-3 0  9998
2 56064  87.9097 236.5453 0002369 108.0998 252.0391 13.16595920153817
ONEWEB-0576             
1 56065U 23043V   26128.99917339  .00000052  00000+0  10199-3 0  9992
2 56065  87.9101 236.5555 0002173 105.7341 254.4030 13.16595939153801
ONEWEB-0577             
1 56066U 23043W   26129.00550002  .00000019  00000+0  16859-4 0  9999
2 56066  87.9100 236.5522 0002766 105.8238 254.3198 13.16595828153833
ONEWEB-0578             
1 56067U 23043X   26129.04326925 -.00000045  00000+0 -14150-3 0  9991
2 56067  87.9241 251.7619 0001917 110.7149 249.4190 13.21825532153065
ONEWEB-0579             
1 56068U 23043Y   26129.03485411 -.00000227  00000+0 -58039-3 0  9993
2 56068  87.9245 251.7587 0001918  91.7371 268.3982 13.21825091153070
ONEWEB-0581             
1 56069U 23043Z   26129.01183788 -.00000116  00000+0 -33704-3 0  9993
2 56069  87.9099 236.5619 0002569 102.8432 257.2986 13.16594534153801
ONEWEB-0609             
1 56070U 23043AA  26129.16396492 -.00000028  00000+0 -10743-3 0  9999
2 56070  87.8968 266.9924 0001756  99.5860 260.5468 13.15550283151304
ONEWEB-0613             
1 56071U 23043AB  26129.08554012  .00000670  00000+0  17462-2 0  9990
2 56071  87.8971 267.0203 0001710  89.7511 270.3816 13.15554193151293
ONEWEB-0630             
1 56072U 23043AC  26129.08079197  .00000085  00000+0  19236-3 0  9999
2 56072  87.8971 266.9915 0001791  91.1107 269.0228 13.15548844151286
ONEWEB-0632             
1 56073U 23043AD  26129.07603725  .00000109  00000+0  25481-3 0  9995
2 56073  87.8972 267.0106 0002019  98.5709 261.5650 13.15549060151282
ONEWEB-0633             
1 56074U 23043AE  26129.14574657  .00000119  00000+0  28299-3 0  9996
2 56074  87.8978 266.9689 0001568  89.1725 270.9585 13.15548254151279
